{"type": "FeatureCollection", "features": [ {"type": "Feature", "properties": {"norad_id": 58662, "name": "TIANMU-1 21", "group": "weather", "lat": 7.454963241399195, "lon": -64.17882979784771, "alt_km": 468.32916289255445, "timestamp": "2025-12-27T09:28:56.110088+00:00", "meta": {"OBJECT_NAME": "TIANMU-1 21", "OBJECT_ID": "2023-208C", "EPOCH": "2025-12-27T04:01:43.525632", "MEAN_MOTION": 15.31866746, "ECCENTRICITY": 0.0006576, "INCLINATION": 97.437, "RA_OF_ASC_NODE": 114.6137, "ARG_OF_PERICENTER": 201.1968, "MEAN_ANOMALY": 158.9002, "EPHEMERIS_TYPE": 0, "CLASSIFICATION_TYPE": "U", "NORAD_CAT_ID": 58662, "ELEMENT_SET_NO": 999, "REV_AT_EPOCH": 11120, "BSTAR": 0.00042614, "MEAN_MOTION_DOT": 0.00013049, "MEAN_MOTION_DDOT": 0}, "tle": {"line1": "1 58662U 23208C   25361.16786488  .00013049  00000+0  42614-3 0  9993", "line2": "2 58662  97.4370 114.6137 0006576 201.1968 158.9002 15.31866746111200"}}, "geometry": {"type": "Point", "coordinates": [-64.17882979784771, 7.454963241399195]}}, {"type": "Feature", "properties": {"norad_id": 58663, "name": "TIANMU-1 22", "group": "weather", "lat": -64.08191993952525, "lon": -83.13668445394981, "alt_km": 487.6276417426898, "timestamp": "2025-12-27T09:28:56.110098+00:00", "meta": {"OBJECT_NAME": "TIANMU-1 22", "OBJECT_ID": "2023-208D", "EPOCH": "2025-12-27T05:16:09.074208", "MEAN_MOTION": 15.2785416, "ECCENTRICITY": 0.0003114, "INCLINATION": 97.4377, "RA_OF_ASC_NODE": 112.2824, "ARG_OF_PERICENTER": 214.4758, "MEAN_ANOMALY": 145.628, "EPHEMERIS_TYPE": 0, "CLASSIFICATION_TYPE": "U", "NORAD_CAT_ID": 58663, "ELEMENT_SET_NO": 999, "REV_AT_EPOCH": 11104, "BSTAR": 0.00039064, "MEAN_MOTION_DOT": 0.00010554, "MEAN_MOTION_DDOT": 0}, "tle": {"line1": "1 58663U 23208D   25361.21954947  .00010554  00000+0  39064-3 0  9990", "line2": "2 58663  97.4377 112.2824 0003114 214.4758 145.6280 15.27854160111049"}}, "geometry": {"type": "Point", "coordinates": [-83.13668445394981, -64.08191993952525]}}, {"type": "Feature", "properties": {"norad_id": 58700, "name": "TIANMU-1 15", "group": "weather", "lat": -24.801623076408397, "lon": -0.6632852576474464, "alt_km": 493.75612629631723, "timestamp": "2025-12-27T09:28:56.110110+00:00", "meta": {"OBJECT_NAME": "TIANMU-1 15", "OBJECT_ID": "2024-004A", "EPOCH": "2025-12-27T03:51:37.031328", "MEAN_MOTION": 15.24602968, "ECCENTRICITY": 0.0006142, "INCLINATION": 97.4632, "RA_OF_ASC_NODE": 182.5763, "ARG_OF_PERICENTER": 228.9013, "MEAN_ANOMALY": 131.1695, "EPHEMERIS_TYPE": 0, "CLASSIFICATION_TYPE": "U", "NORAD_CAT_ID": 58700, "ELEMENT_SET_NO": 999, "REV_AT_EPOCH": 10954, "BSTAR": 0.00033683, "MEAN_MOTION_DOT": 8.24e-05, "MEAN_MOTION_DDOT": 0}, "tle": {"line1": "1 58700U 24004A   25361.16084527  .00008240  00000+0  33683-3 0  9999", "line2": "2 58700  97.4632 182.5763 0006142 228.9013 131.1695 15.24602968109541"}}, "geometry": {"type": "Point", "coordinates": [-0.6632852576474464, -24.801623076408397]}}, {"type": "Feature", "properties": {"norad_id": 58701, "name": "TIANMU-1 16", "group": "weather", "lat": -70.6751125179104, "lon": -155.8811381358984, "alt_km": 497.57390240392306, "timestamp": "2025-12-27T09:28:56.110120+00:00", "meta": {"OBJECT_NAME": "TIANMU-1 16", "OBJECT_ID": "2024-004B", "EPOCH": "2025-12-27T05:04:21.802080", "MEAN_MOTION": 15.24631037, "ECCENTRICITY": 0.0004482, "INCLINATION": 97.4571, "RA_OF_ASC_NODE": 182.0039, "ARG_OF_PERICENTER": 230.2415, "MEAN_ANOMALY": 129.8428, "EPHEMERIS_TYPE": 0, "CLASSIFICATION_TYPE": "U", "NORAD_CAT_ID": 58701, "ELEMENT_SET_NO": 999, "REV_AT_EPOCH": 10955, "BSTAR": 0.00034127, "MEAN_MOTION_DOT": 8.355e-05, "MEAN_MOTION_DDOT": 0}, "tle": {"line1": "1 58701U 24004B   25361.21136345  .00008355  00000+0  34127-3 0  9993", "line2": "2 58701  97.4571 182.0039 0004482 230.2415 129.8428 15.24631037109550"}}, "geometry": {"type": "Point", "coordinates": [-155.8811381358984, -70.6751125179104]}}, {"type": "Feature", "properties": {"norad_id": 58702, "name": "TIANMU-1 17", "group": "weather", "lat": 14.451577245367718, "lon": -179.33092465997953, "alt_km": 494.8415220640236, "timestamp": "2025-12-27T09:28:56.110130+00:00", "meta": {"OBJECT_NAME": "TIANMU-1 17", "OBJECT_ID": "2024-004C", "EPOCH": "2025-12-27T04:41:35.242656", "MEAN_MOTION": 15.24674023, "ECCENTRICITY": 0.0003662, "INCLINATION": 97.4605, "RA_OF_ASC_NODE": 182.4057, "ARG_OF_PERICENTER": 230.487, "MEAN_ANOMALY": 129.6044, "EPHEMERIS_TYPE": 0, "CLASSIFICATION_TYPE": "U", "NORAD_CAT_ID": 58702, "ELEMENT_SET_NO": 999, "REV_AT_EPOCH": 10954, "BSTAR": 0.0003589, "MEAN_MOTION_DOT": 8.801e-05, "MEAN_MOTION_DDOT": 0}, "tle": {"line1": "1 58702U 24004C   25361.19554679  .00008801  00000+0  35890-3 0  9999", "line2": "2 58702  97.4605 182.4057 0003662 230.4870 129.6044 15.24674023109542"}}, "geometry": {"type": "Point", "coordinates": [-179.33092465997953, 14.451577245367718]}}, {"type": "Feature", "properties": {"norad_id": 58703, "name": "TIANMU-1 18", "group": "weather", "lat": 72.93719601029812, "lon": 28.08345949094995, "alt_km": 485.89439354508886, "timestamp": "2025-12-27T09:28:56.110140+00:00", "meta": {"OBJECT_NAME": "TIANMU-1 18", "OBJECT_ID": "2024-004D", "EPOCH": "2025-12-27T04:17:46.245408", "MEAN_MOTION": 15.24655989, "ECCENTRICITY": 0.0003058, "INCLINATION": 97.4623, "RA_OF_ASC_NODE": 182.5876, "ARG_OF_PERICENTER": 226.6807, "MEAN_ANOMALY": 133.4176, "EPHEMERIS_TYPE": 0, "CLASSIFICATION_TYPE": "U", "NORAD_CAT_ID": 58703, "ELEMENT_SET_NO": 999, "REV_AT_EPOCH": 10954, "BSTAR": 0.00034102, "MEAN_MOTION_DOT": 8.354e-05, "MEAN_MOTION_DDOT": 0}, "tle": {"line1": "1 58703U 24004D   25361.17900747  .00008354  00000+0  34102-3 0  9997", "line2": "2 58703  97.4623 182.5876 0003058 226.6807 133.4176 15.24655989109548"}}, "geometry": {"type": "Point", "coordinates": [28.08345949094995, 72.93719601029812]}}, {"type": "Feature", "properties": {"norad_id": 58990, "name": "INSAT-3DS", "group": "weather", "lat": -0.054970880286048386, "lon": -39.53122047664038, "alt_km": 35782.18674754031, "timestamp": "2025-12-27T09:28:56.110151+00:00", "meta": {"OBJECT_NAME": "INSAT-3DS", "OBJECT_ID": "2024-033A", "EPOCH": "2025-12-27T03:07:12.484704", "MEAN_MOTION": 1.00270739, "ECCENTRICITY": 0.0001375, "INCLINATION": 0.0646, "RA_OF_ASC_NODE": 98.7441, "ARG_OF_PERICENTER": 178.0436, "MEAN_ANOMALY": 307.9854, "EPHEMERIS_TYPE": 0, "CLASSIFICATION_TYPE": "U", "NORAD_CAT_ID": 58990, "ELEMENT_SET_NO": 999, "REV_AT_EPOCH": 4534, "BSTAR": 0, "MEAN_MOTION_DOT": -1.34e-06, "MEAN_MOTION_DDOT": 0}, "tle": {"line1": "1 58990U 24033A   25361.13000561 -.00000134  00000+0  00000+0 0  9993", "line2": "2 58990   0.0646  98.7441 0001375 178.0436 307.9854  1.00270739 45348"}}, "geometry": {"type": "Point", "coordinates": [-39.53122047664038, -0.054970880286048386]}}, {"type": "Feature", "properties": {"norad_id": 59051, "name": "METEOR-M2 4", "group": "weather", "lat": -59.36061738131779, "lon": -26.981149612569755, "alt_km": 819.9358003526067, "timestamp": "2025-12-27T09:28:56.110164+00:00", "meta": {"OBJECT_NAME": "METEOR-M2 4", "OBJECT_ID": "2024-039A", "EPOCH": "2025-12-27T04:42:04.286880", "MEAN_MOTION": 14.22403549, "ECCENTRICITY": 0.0006308, "INCLINATION": 98.6787, "RA_OF_ASC_NODE": 317.8795, "ARG_OF_PERICENTER": 314.6028, "MEAN_ANOMALY": 45.4634, "EPHEMERIS_TYPE": 0, "CLASSIFICATION_TYPE": "U", "NORAD_CAT_ID": 59051, "ELEMENT_SET_NO": 999, "REV_AT_EPOCH": 9481, "BSTAR": 4.3612e-05, "MEAN_MOTION_DOT": 5.3e-07, "MEAN_MOTION_DDOT": 0}, "tle": {"line1": "1 59051U 24039A   25361.19588295  .00000053  00000+0  43612-4 0  9999", "line2": "2 59051  98.6787 317.8795 0006308 314.6028  45.4634 14.22403549 94810"}}, "geometry": {"type": "Point", "coordinates": [-26.981149612569755, -59.36061738131779]}}, {"type": "Feature", "properties": {"norad_id": 60133, "name": "GOES 19", "group": "weather", "lat": 0.000726547774269279, "lon": 163.15369312371988, "alt_km": 35790.9911423649, "timestamp": "2025-12-27T09:28:56.110176+00:00", "meta": {"OBJECT_NAME": "GOES 19", "OBJECT_ID": "2024-119A", "EPOCH": "2025-12-27T00:39:38.966976", "MEAN_MOTION": 1.00269913, "ECCENTRICITY": 0.0001146, "INCLINATION": 0.0131, "RA_OF_ASC_NODE": 245.9199, "ARG_OF_PERICENTER": 71.5721, "MEAN_ANOMALY": 72.9936, "EPHEMERIS_TYPE": 0, "CLASSIFICATION_TYPE": "U", "NORAD_CAT_ID": 60133, "ELEMENT_SET_NO": 999, "REV_AT_EPOCH": 523, "BSTAR": 0, "MEAN_MOTION_DOT": -2.26e-06, "MEAN_MOTION_DDOT": 0}, "tle": {"line1": "1 60133U 24119A   25361.02753434 -.00000226  00000+0  00000+0 0  9994", "line2": "2 60133   0.0131 245.9199 0001146  71.5721  72.9936  1.00269913  5231"}}, "geometry": {"type": "Point", "coordinates": [163.15369312371988, 0.000726547774269279]}}, {"type": "Feature", "properties": {"norad_id": 65815, "name": "FENGYUN 3H", "group": "weather", "lat": 46.18359926515476, "lon": -68.47104413747897, "alt_km": 821.2918021786236, "timestamp": "2025-12-27T09:28:56.110187+00:00", "meta": {"OBJECT_NAME": "FENGYUN 3H", "OBJECT_ID": "2025-219A", "EPOCH": "2025-12-27T02:29:50.720928", "MEAN_MOTION": 14.19908649, "ECCENTRICITY": 8.81e-05, "INCLINATION": 98.6603, "RA_OF_ASC_NODE": 300.3838, "ARG_OF_PERICENTER": 109.7318, "MEAN_ANOMALY": 250.3953, "EPHEMERIS_TYPE": 0, "CLASSIFICATION_TYPE": "U", "NORAD_CAT_ID": 65815, "ELEMENT_SET_NO": 999, "REV_AT_EPOCH": 1296, "BSTAR": 7.9752e-05, "MEAN_MOTION_DOT": 1.26e-06, "MEAN_MOTION_DDOT": 0}, "tle": {"line1": "1 65815U 25219A   25361.10405927  .00000126  00000+0  79752-4 0  9991", "line2": "2 65815  98.6603 300.3838 0000881 109.7318 250.3953 14.19908649 12966"}}, "geometry": {"type": "Point", "coordinates": [-68.47104413747897, 46.18359926515476]}}]}